CZ-2C R/B               
1 54039U 22132E   26047.47146717  .00042057  00000+0  51650-3 0  9994
2 54039  97.2956  50.1775 0019448 161.0355 199.1631 15.59954946187062
GSLV R/B                
1 54149U 22138AN  26047.39261752  .00003488  00000+0  30272-3 0  9992
2 54149  87.3871 173.4879 0019965 224.5521 135.4106 14.96608004180747
XRISM                   
1 57800U 23137A   26047.44069707  .00006101  00000+0  34825-3 0  9994
2 57800  31.0028  61.0697 0008215 187.8393 172.2118 15.11232760134570
ACS3                    
1 59588U 24077B   26047.46525010  .00016264  00000+0  13374-1 0  9994
2 59588  97.2186 353.3486 0047526 139.8883 220.5805 13.88686929 91255
SZ-21 MODULE            
1 66515U 25246C   26047.15889357  .00036256  00000+0  33420-3 0  9993
2 66515  41.4767 335.7274 0002065 297.2622  62.8008 15.66881556 14693
