CCSDS_OMM_VERS = 2.0
CREATION_DATE  = 
ORIGINATOR     = 

OBJECT_NAME    = CZ-2C R/B
OBJECT_ID      = 2022-132E
CENTER_NAME    = EARTH
REF_FRAME      = TEME
TIME_SYSTEM    = UTC
MEAN_ELEMENT_THEORY = SGP/SGP4

EPOCH          = 2026-02-16T11:18:54.763488
MEAN_MOTION    = 15.59954946
ECCENTRICITY   = .0019448
INCLINATION    = 97.2956
RA_OF_ASC_NODE = 50.1775
ARG_OF_PERICENTER = 161.0355
MEAN_ANOMALY   = 199.1631

EPHEMERIS_TYPE = 0
CLASSIFICATION_TYPE = U
NORAD_CAT_ID   = 54039
ELEMENT_SET_NO = 999
REV_AT_EPOCH   = 18706
BSTAR          = .5165E-3
MEAN_MOTION_DOT = .42057E-3
MEAN_MOTION_DDOT = 0

CCSDS_OMM_VERS = 2.0
CREATION_DATE  = 
ORIGINATOR     = 

OBJECT_NAME    = GSLV R/B
OBJECT_ID      = 2022-138AN
CENTER_NAME    = EARTH
REF_FRAME      = TEME
TIME_SYSTEM    = UTC
MEAN_ELEMENT_THEORY = SGP/SGP4

EPOCH          = 2026-02-16T09:25:22.153728
MEAN_MOTION    = 14.96608004
ECCENTRICITY   = .0019965
INCLINATION    = 87.3871
RA_OF_ASC_NODE = 173.4879
ARG_OF_PERICENTER = 224.5521
MEAN_ANOMALY   = 135.4106

EPHEMERIS_TYPE = 0
CLASSIFICATION_TYPE = U
NORAD_CAT_ID   = 54149
ELEMENT_SET_NO = 999
REV_AT_EPOCH   = 18074
BSTAR          = .30272E-3
MEAN_MOTION_DOT = .3488E-4
MEAN_MOTION_DDOT = 0

CCSDS_OMM_VERS = 2.0
CREATION_DATE  = 
ORIGINATOR     = 

OBJECT_NAME    = XRISM
OBJECT_ID      = 2023-137A
CENTER_NAME    = EARTH
REF_FRAME      = TEME
TIME_SYSTEM    = UTC
MEAN_ELEMENT_THEORY = SGP/SGP4

EPOCH          = 2026-02-16T10:34:36.226848
MEAN_MOTION    = 15.11232760
ECCENTRICITY   = .0008215
INCLINATION    = 31.0028
RA_OF_ASC_NODE = 61.0697
ARG_OF_PERICENTER = 187.8393
MEAN_ANOMALY   = 172.2118

EPHEMERIS_TYPE = 0
CLASSIFICATION_TYPE = U
NORAD_CAT_ID   = 57800
ELEMENT_SET_NO = 999
REV_AT_EPOCH   = 13457
BSTAR          = .34825E-3
MEAN_MOTION_DOT = .6101E-4
MEAN_MOTION_DDOT = 0

CCSDS_OMM_VERS = 2.0
CREATION_DATE  = 
ORIGINATOR     = 

OBJECT_NAME    = ACS3
OBJECT_ID      = 2024-077B
CENTER_NAME    = EARTH
REF_FRAME      = TEME
TIME_SYSTEM    = UTC
MEAN_ELEMENT_THEORY = SGP/SGP4

EPOCH          = 2026-02-16T11:09:57.608640
MEAN_MOTION    = 13.88686929
ECCENTRICITY   = .0047526
INCLINATION    = 97.2186
RA_OF_ASC_NODE = 353.3486
ARG_OF_PERICENTER = 139.8883
MEAN_ANOMALY   = 220.5805

EPHEMERIS_TYPE = 0
CLASSIFICATION_TYPE = U
NORAD_CAT_ID   = 59588
ELEMENT_SET_NO = 999
REV_AT_EPOCH   = 9125
BSTAR          = .13374E-1
MEAN_MOTION_DOT = .16264E-3
MEAN_MOTION_DDOT = 0

CCSDS_OMM_VERS = 2.0
CREATION_DATE  = 
ORIGINATOR     = 

OBJECT_NAME    = SZ-21 MODULE
OBJECT_ID      = 2025-246C
CENTER_NAME    = EARTH
REF_FRAME      = TEME
TIME_SYSTEM    = UTC
MEAN_ELEMENT_THEORY = SGP/SGP4

EPOCH          = 2026-02-16T03:48:48.404448
MEAN_MOTION    = 15.66881556
ECCENTRICITY   = .00020652
INCLINATION    = 41.4767
RA_OF_ASC_NODE = 335.7274
ARG_OF_PERICENTER = 297.2622
MEAN_ANOMALY   = 62.8008

EPHEMERIS_TYPE = 0
CLASSIFICATION_TYPE = U
NORAD_CAT_ID   = 66515
ELEMENT_SET_NO = 999
REV_AT_EPOCH   = 1469
BSTAR          = .33419503E-3
MEAN_MOTION_DOT = .36256E-3
MEAN_MOTION_DDOT = 0

